ARKTIKA-M 2             
1 58584U 23198A   25143.94347222  .00000232  00000+0  00000+0 0  9996
2 58584  63.2286 197.0241 6875177 268.9122  18.4532  2.00610916 10519
TIANMU-1 11             
1 58645U 23205A   25144.85271821  .00004244  00000+0  18919-3 0  9994
2 58645  97.3728 168.2350 0008118 296.9308  63.1098 15.21929581 78360
TIANMU-1 12             
1 58646U 23205B   25144.80293426  .00004749  00000+0  21181-3 0  9990
2 58646  97.3715 168.0520 0006019 282.7723  77.2840 15.21859004 78347
TIANMU-1 13             
1 58647U 23205C   25144.83539133  .00004386  00000+0  19603-3 0  9995
2 58647  97.3744 168.2107 0006203 255.0664 104.9886 15.21832030 78343
TIANMU-1 14             
1 58648U 23205D   25144.88463929  .00004518  00000+0  20165-3 0  9992
2 58648  97.3673 167.7944 0007177 262.0862  97.9559 15.21854844 78353
TIANMU-1 19             
1 58660U 23208A   25144.85023834  .00006166  00000+0  25819-3 0  9995
2 58660  97.4263 257.1765 0004546 237.7925 122.2872 15.23904624 78044
TIANMU-1 20             
1 58661U 23208B   25144.86420197  .00006063  00000+0  24494-3 0  9994
2 58661  97.4199 257.4407 0006791 254.1957 105.8532 15.25105767 78099
TIANMU-1 21             
1 58662U 23208C   25144.81850006  .00006504  00000+0  24811-3 0  9999
2 58662  97.4241 258.5250 0006455 251.2536 108.8003 15.26997217 78146
TIANMU-1 22             
1 58663U 23208D   25144.83681899  .00005523  00000+0  23159-3 0  9998
2 58663  97.4257 257.2674 0002742 268.2524  91.8399 15.23904907 78050
TIANMU-1 15             
1 58700U 24004A   25144.55232653  .00004493  00000+0  20138-3 0  9993
2 58700  97.4651 327.2190 0005195 281.6943  78.3710 15.21737433 76578
TIANMU-1 16             
1 58701U 24004B   25144.86602231  .00004622  00000+0  20679-3 0  9995
2 58701  97.4585 327.0895 0005541 287.2829  72.7800 15.21779008 76623
TIANMU-1 17             
1 58702U 24004C   25144.85418323  .00004743  00000+0  21114-3 0  9991
2 58702  97.4622 327.3834 0004174 289.8256  70.2530 15.21940207 76618
TIANMU-1 18             
1 58703U 24004D   25144.83541592  .00004442  00000+0  19848-3 0  9992
2 58703  97.4639 327.5176 0003990 273.4790  86.5989 15.21853070 76614
INSAT-3DS               
1 58990U 24033A   25144.59077516 -.00000147  00000+0  00000+0 0  9990
2 58990   0.0298 264.7672 0001102 149.7004 122.7232  1.00271370 43170
