[
  {
    "OBJECT_NAME": "ARKTIKA-M 2",
    "OBJECT_ID": "2023-198A",
    "EPOCH": "2025-05-23T22:38:35.999808",
    "MEAN_MOTION": 2.00610916,
    "ECCENTRICITY": 0.6875177,
    "INCLINATION": 63.2286,
    "RA_OF_ASC_NODE": 197.0241,
    "ARG_OF_PERICENTER": 268.9122,
    "MEAN_ANOMALY": 18.4532,
    "EPHEMERIS_TYPE": 0,
    "CLASSIFICATION_TYPE": "U",
    "NORAD_CAT_ID": 58584,
    "ELEMENT_SET_NO": 999,
    "REV_AT_EPOCH": 1051,
    "BSTAR": 0,
    "MEAN_MOTION_DOT": 2.32e-06,
    "MEAN_MOTION_DDOT": 0
  },
  {
    "OBJECT_NAME": "TIANMU-1 11",
    "OBJECT_ID": "2023-205A",
    "EPOCH": "2025-05-24T20:27:54.853344",
    "MEAN_MOTION": 15.21929581,
    "ECCENTRICITY": 0.0008118,
    "INCLINATION": 97.3728,
    "RA_OF_ASC_NODE": 168.235,
    "ARG_OF_PERICENTER": 296.9308,
    "MEAN_ANOMALY": 63.1098,
    "EPHEMERIS_TYPE": 0,
    "CLASSIFICATION_TYPE": "U",
    "NORAD_CAT_ID": 58645,
    "ELEMENT_SET_NO": 999,
    "REV_AT_EPOCH": 7836,
    "BSTAR": 0.00018919,
    "MEAN_MOTION_DOT": 4.244e-05,
    "MEAN_MOTION_DDOT": 0
  },
  {
    "OBJECT_NAME": "TIANMU-1 12",
    "OBJECT_ID": "2023-205B",
    "EPOCH": "2025-05-24T19:16:13.520064",
    "MEAN_MOTION": 15.21859004,
    "ECCENTRICITY": 0.0006019,
    "INCLINATION": 97.3715,
    "RA_OF_ASC_NODE": 168.052,
    "ARG_OF_PERICENTER": 282.7723,
    "MEAN_ANOMALY": 77.284,
    "EPHEMERIS_TYPE": 0,
    "CLASSIFICATION_TYPE": "U",
    "NORAD_CAT_ID": 58646,
    "ELEMENT_SET_NO": 999,
    "REV_AT_EPOCH": 7834,
    "BSTAR": 0.00021181,
    "MEAN_MOTION_DOT": 4.749e-05,
    "MEAN_MOTION_DDOT": 0
  },
  {
    "OBJECT_NAME": "TIANMU-1 13",
    "OBJECT_ID": "2023-205C",
    "EPOCH": "2025-05-24T20:02:57.810912",
    "MEAN_MOTION": 15.2183203,
    "ECCENTRICITY": 0.0006203,
    "INCLINATION": 97.3744,
    "RA_OF_ASC_NODE": 168.2107,
    "ARG_OF_PERICENTER": 255.0664,
    "MEAN_ANOMALY": 104.9886,
    "EPHEMERIS_TYPE": 0,
    "CLASSIFICATION_TYPE": "U",
    "NORAD_CAT_ID": 58647,
    "ELEMENT_SET_NO": 999,
    "REV_AT_EPOCH": 7834,
    "BSTAR": 0.00019603,
    "MEAN_MOTION_DOT": 4.386e-05,
    "MEAN_MOTION_DDOT": 0
  },
  {
    "OBJECT_NAME": "TIANMU-1 14",
    "OBJECT_ID": "2023-205D",
    "EPOCH": "2025-05-24T21:13:52.834656",
    "MEAN_MOTION": 15.21854844,
    "ECCENTRICITY": 0.0007177,
    "INCLINATION": 97.3673,
    "RA_OF_ASC_NODE": 167.7944,
    "ARG_OF_PERICENTER": 262.0862,
    "MEAN_ANOMALY": 97.9559,
    "EPHEMERIS_TYPE": 0,
    "CLASSIFICATION_TYPE": "U",
    "NORAD_CAT_ID": 58648,
    "ELEMENT_SET_NO": 999,
    "REV_AT_EPOCH": 7835,
    "BSTAR": 0.00020165,
    "MEAN_MOTION_DOT": 4.518e-05,
    "MEAN_MOTION_DDOT": 0
  },
  {
    "OBJECT_NAME": "TIANMU-1 19",
    "OBJECT_ID": "2023-208A",
    "EPOCH": "2025-05-24T20:24:20.592576",
    "MEAN_MOTION": 15.23904624,
    "ECCENTRICITY": 0.0004546,
    "INCLINATION": 97.4263,
    "RA_OF_ASC_NODE": 257.1765,
    "ARG_OF_PERICENTER": 237.7925,
    "MEAN_ANOMALY": 122.2872,
    "EPHEMERIS_TYPE": 0,
    "CLASSIFICATION_TYPE": "U",
    "NORAD_CAT_ID": 58660,
    "ELEMENT_SET_NO": 999,
    "REV_AT_EPOCH": 7804,
    "BSTAR": 0.00025819,
    "MEAN_MOTION_DOT": 6.166e-05,
    "MEAN_MOTION_DDOT": 0
  },
  {
    "OBJECT_NAME": "TIANMU-1 20",
    "OBJECT_ID": "2023-208B",
    "EPOCH": "2025-05-24T20:44:27.050208",
    "MEAN_MOTION": 15.25105767,
    "ECCENTRICITY": 0.0006791,
    "INCLINATION": 97.4199,
    "RA_OF_ASC_NODE": 257.4407,
    "ARG_OF_PERICENTER": 254.1957,
    "MEAN_ANOMALY": 105.8532,
    "EPHEMERIS_TYPE": 0,
    "CLASSIFICATION_TYPE": "U",
    "NORAD_CAT_ID": 58661,
    "ELEMENT_SET_NO": 999,
    "REV_AT_EPOCH": 7809,
    "BSTAR": 0.00024494,
    "MEAN_MOTION_DOT": 6.063e-05,
    "MEAN_MOTION_DDOT": 0
  },
  {
    "OBJECT_NAME": "TIANMU-1 21",
    "OBJECT_ID": "2023-208C",
    "EPOCH": "2025-05-24T19:38:38.405184",
    "MEAN_MOTION": 15.26997217,
    "ECCENTRICITY": 0.0006455,
    "INCLINATION": 97.4241,
    "RA_OF_ASC_NODE": 258.525,
    "ARG_OF_PERICENTER": 251.2536,
    "MEAN_ANOMALY": 108.8003,
    "EPHEMERIS_TYPE": 0,
    "CLASSIFICATION_TYPE": "U",
    "NORAD_CAT_ID": 58662,
    "ELEMENT_SET_NO": 999,
    "REV_AT_EPOCH": 7814,
    "BSTAR": 0.00024811,
    "MEAN_MOTION_DOT": 6.504e-05,
    "MEAN_MOTION_DDOT": 0
  },
  {
    "OBJECT_NAME": "TIANMU-1 22",
    "OBJECT_ID": "2023-208D",
    "EPOCH": "2025-05-24T20:05:01.160736",
    "MEAN_MOTION": 15.23904907,
    "ECCENTRICITY": 0.0002742,
    "INCLINATION": 97.4257,
    "RA_OF_ASC_NODE": 257.2674,
    "ARG_OF_PERICENTER": 268.2524,
    "MEAN_ANOMALY": 91.8399,
    "EPHEMERIS_TYPE": 0,
    "CLASSIFICATION_TYPE": "U",
    "NORAD_CAT_ID": 58663,
    "ELEMENT_SET_NO": 999,
    "REV_AT_EPOCH": 7805,
    "BSTAR": 0.00023159,
    "MEAN_MOTION_DOT": 5.523e-05,
    "MEAN_MOTION_DDOT": 0
  },
  {
    "OBJECT_NAME": "TIANMU-1 15",
    "OBJECT_ID": "2024-004A",
    "EPOCH": "2025-05-24T13:15:21.012192",
    "MEAN_MOTION": 15.21737433,
    "ECCENTRICITY": 0.0005195,
    "INCLINATION": 97.4651,
    "RA_OF_ASC_NODE": 327.219,
    "ARG_OF_PERICENTER": 281.6943,
    "MEAN_ANOMALY": 78.371,
    "EPHEMERIS_TYPE": 0,
    "CLASSIFICATION_TYPE": "U",
    "NORAD_CAT_ID": 58700,
    "ELEMENT_SET_NO": 999,
    "REV_AT_EPOCH": 7657,
    "BSTAR": 0.00020138,
    "MEAN_MOTION_DOT": 4.493e-05,
    "MEAN_MOTION_DDOT": 0
  },
  {
    "OBJECT_NAME": "TIANMU-1 16",
    "OBJECT_ID": "2024-004B",
    "EPOCH": "2025-05-24T20:47:04.327584",
    "MEAN_MOTION": 15.21779008,
    "ECCENTRICITY": 0.0005541,
    "INCLINATION": 97.4585,
    "RA_OF_ASC_NODE": 327.0895,
    "ARG_OF_PERICENTER": 287.2829,
    "MEAN_ANOMALY": 72.78,
    "EPHEMERIS_TYPE": 0,
    "CLASSIFICATION_TYPE": "U",
    "NORAD_CAT_ID": 58701,
    "ELEMENT_SET_NO": 999,
    "REV_AT_EPOCH": 7662,
    "BSTAR": 0.00020679,
    "MEAN_MOTION_DOT": 4.622e-05,
    "MEAN_MOTION_DDOT": 0
  },
  {
    "OBJECT_NAME": "TIANMU-1 17",
    "OBJECT_ID": "2024-004C",
    "EPOCH": "2025-05-24T20:30:01.431072",
    "MEAN_MOTION": 15.21940207,
    "ECCENTRICITY": 0.0004174,
    "INCLINATION": 97.4622,
    "RA_OF_ASC_NODE": 327.3834,
    "ARG_OF_PERICENTER": 289.8256,
    "MEAN_ANOMALY": 70.253,
    "EPHEMERIS_TYPE": 0,
    "CLASSIFICATION_TYPE": "U",
    "NORAD_CAT_ID": 58702,
    "ELEMENT_SET_NO": 999,
    "REV_AT_EPOCH": 7661,
    "BSTAR": 0.00021114,
    "MEAN_MOTION_DOT": 4.743e-05,
    "MEAN_MOTION_DDOT": 0
  },
  {
    "OBJECT_NAME": "TIANMU-1 18",
    "OBJECT_ID": "2024-004D",
    "EPOCH": "2025-05-24T20:02:59.935488",
    "MEAN_MOTION": 15.2185307,
    "ECCENTRICITY": 0.000399,
    "INCLINATION": 97.4639,
    "RA_OF_ASC_NODE": 327.5176,
    "ARG_OF_PERICENTER": 273.479,
    "MEAN_ANOMALY": 86.5989,
    "EPHEMERIS_TYPE": 0,
    "CLASSIFICATION_TYPE": "U",
    "NORAD_CAT_ID": 58703,
    "ELEMENT_SET_NO": 999,
    "REV_AT_EPOCH": 7661,
    "BSTAR": 0.00019848,
    "MEAN_MOTION_DOT": 4.442e-05,
    "MEAN_MOTION_DDOT": 0
  },
  {
    "OBJECT_NAME": "INSAT-3DS",
    "OBJECT_ID": "2024-033A",
    "EPOCH": "2025-05-24T14:10:42.973824",
    "MEAN_MOTION": 1.0027137,
    "ECCENTRICITY": 0.0001102,
    "INCLINATION": 0.0298,
    "RA_OF_ASC_NODE": 264.7672,
    "ARG_OF_PERICENTER": 149.7004,
    "MEAN_ANOMALY": 122.7232,
    "EPHEMERIS_TYPE": 0,
    "CLASSIFICATION_TYPE": "U",
    "NORAD_CAT_ID": 58990,
    "ELEMENT_SET_NO": 999,
    "REV_AT_EPOCH": 4317,
    "BSTAR": 0,
    "MEAN_MOTION_DOT": -1.47e-06,
    "MEAN_MOTION_DDOT": 0
  }
]